ONEWEB-0393             
1 50473U 21132E   23294.46043539 -.00000002  00000+0 -37608-4 0  9993
2 50473  87.9261 198.5625 0001472  73.1074 287.0219 13.17651211 90406
ONEWEB-0394             
1 50474U 21132F   23294.39615449 -.00000033  00000+0 -11687-3 0  9993
2 50474  87.9263 168.3515 0001755  81.7836 278.3495 13.18687136 93786
ONEWEB-0395             
1 50475U 21132G   23294.51174539 -.00000321  00000+0 -94120-3 0  9991
2 50475  87.9002 213.7348 0001701  84.1212 276.0110 13.11418088 88620
ONEWEB-0396             
1 50476U 21132H   23294.38984193  .00000025  00000+0  30851-4 0  9993
2 50476  87.9262 168.3443 0001831  82.5922 277.5418 13.18681865 93821
ONEWEB-0397             
1 50477U 21132J   23294.40458085 -.00000112  00000+0 -31717-3 0  9993
2 50477  87.9260 168.3429 0001939  84.9801 275.1553 13.18687549 93802
ONEWEB-0398             
1 50478U 21132K   23294.25041602  .00000411  00000+0  11248-2 0  9996
2 50478  87.8999 213.7781 0001280  85.3578 274.7696 13.11414670 88489
ONEWEB-0399             
1 50479U 21132L   23294.31209981  .00000584  00000+0  16116-2 0  9990
2 50479  87.8997 213.7774 0002244  79.7014 280.4367 13.11418537 88488
ONEWEB-0400             
1 50480U 21132M   23294.38350085 -.00000792  00000+0 -20423-2 0  9990
2 50480  87.9170 168.3585 0002067  67.8219 292.3132 13.18687016 93796
